     3.00           N                   E                   RINEX VERSION / TYPE
BRD_USR             ESA                 20190106 111921  UTCPGM / RUN BY / DATE
 GAL   4.9750E+01  3.9062E-03 -3.2654E-03  0.0000E+00       IONOSPHERIC CORR
GAUT  0.0000000000E+00 0.000000000E+00      0 2035 GSTB   0 TIME SYSTEM CORR
GPGA -2.6484485716E-09 2.664535259E-15      0 2035 GSTB   0 TIME SYSTEM CORR
                                                            END OF HEADER
E26 2019 01 06 08 40 00 5.051354703028E-03-4.330047431722E-11 0.000000000000E+00
     5.200000000000E+01-1.762187500000E+02 3.027268955046E-09 1.772762841088E+00
    -8.175149559975E-06 3.254268085584E-04 2.803280949593E-06 5.440608955383E+03
     3.120000000000E+04-2.980232238770E-08-8.571308577750E-01-1.117587089539E-08
     9.783213862583E-01 2.907187500000E+02-2.117239373781E+00-5.691665652149E-09
    -2.760829285336E-10 5.210000000000E+02 2.035000000000E+03 0.000000000000E+00
     3.120000000000E+00 0.000000000000E+00 9.313225746155E-10 1.164153218269E-09
     3.242500000000E+04 0.000000000000E+00 0.000000000000E+00 0.000000000000E+00
E27 2019 01 06 08 40 00 5.553303635679E-04-7.659650691494E-12 0.000000000000E+00
     5.200000000000E+01 1.397812500000E+02 2.267594454411E-09-2.800153991710E+00
     6.634742021561E-06 2.064909785986E-04 1.098588109016E-05 5.440640024185E+03
     3.120000000000E+04-7.823109626770E-08-2.949001157644E+00 1.043081283569E-07
     9.898876540055E-01 1.181250000000E+02-9.355026986424E-01-5.187358931464E-09
    -9.500395729616E-11 5.210000000000E+02 2.035000000000E+03 0.000000000000E+00
     3.120000000000E+00 0.000000000000E+00-2.793967723846E-09-3.259629011154E-09
     3.242500000000E+04 0.000000000000E+00 0.000000000000E+00 0.000000000000E+00
E30 2019 01 06 08 00 00 5.210814124439E-03-3.042543994525E-11 0.000000000000E+00
     4.800000000000E+01 1.423437500000E+02 2.296524230881E-09 2.514563292511E+00
     6.726011633873E-06 2.943655708805E-04 1.167133450508E-05 5.440625141144E+03
     2.880000000000E+04 9.313225746155E-09-2.942983963461E+00-1.117587089539E-08
     9.879031529660E-01 1.027812500000E+02 5.008173399553E-01-5.113070122751E-09
    -4.214461263514E-11 5.210000000000E+02 2.035000000000E+03 0.000000000000E+00
     3.120000000000E+00 0.000000000000E+00-2.793967723846E-09-3.492459654808E-09
     3.242500000000E+04 0.000000000000E+00 0.000000000000E+00 0.000000000000E+00
E31 2019 01 06 08 40 00 9.397115209140E-04-9.734435479913E-12 0.000000000000E+00
     5.200000000000E+01 1.754375000000E+02 2.152589664000E-09 1.716098586212E+00
     8.162111043930E-06 2.558242995292E-04 1.159310340881E-05 5.440639091492E+03
     3.120000000000E+04 1.676380634308E-08-2.949050447743E+00-3.725290298462E-09
     9.898911913414E-01 1.044687500000E+02-1.524736491509E+00-5.024137846936E-09
    -7.607459738377E-11 5.210000000000E+02 2.035000000000E+03 0.000000000000E+00
     3.120000000000E+00 0.000000000000E+00-2.328306436539E-10-2.328306436539E-10
     3.242500000000E+04 0.000000000000E+00 0.000000000000E+00 0.000000000000E+00
E33 2019 01 06 08 00 00 8.478693198413E-04 4.263256414561E-14 0.000000000000E+00
     4.800000000000E+01-1.860625000000E+02 2.926193316269E-09 8.416896535811E-02
    -8.616596460342E-06 3.563056234270E-04 2.754852175713E-06 5.440599649429E+03
     2.880000000000E+04-3.725290298462E-09-8.660892370531E-01 5.401670932770E-08
     9.852002406531E-01 2.939062500000E+02-1.518053605232E+00-5.726309952366E-09
    -3.128701751558E-10 5.210000000000E+02 2.035000000000E+03 0.000000000000E+00
     3.120000000000E+00 4.550000000000E+02-8.149072527885E-09-9.313225746155E-09
     3.242500000000E+04 0.000000000000E+00 0.000000000000E+00 0.000000000000E+00
E36 2019 01 06 08 40 00 7.629176252522E-04-4.490630090004E-12 0.000000000000E+00
     5.200000000000E+01-1.767187500000E+02 2.939408152434E-09-1.858346432137E+00
    -8.143484592438E-06 3.247188869864E-04 1.369044184685E-06 5.440602329254E+03
     3.120000000000E+04 1.490116119385E-08-8.660765389242E-01 4.284083843231E-08
     9.852080365435E-01 3.243750000000E+02-1.632448207757E+00-5.721309744087E-09
    -2.996553389905E-10 5.210000000000E+02 2.035000000000E+03 0.000000000000E+00
     3.120000000000E+00 4.550000000000E+02 1.629814505577E-09 1.629814505577E-09
     3.242500000000E+04 0.000000000000E+00 0.000000000000E+00 0.000000000000E+00
E15 2019 01 06 08 10 00 9.237193735316E-04-1.008970684779E-12 0.000000000000E+00
     4.900000000000E+01-1.682187500000E+02 2.858333346771E-09 2.681501076037E+00
    -7.880851626396E-06 3.809779882431E-04 2.190470695496E-06 5.440602161407E+03
     2.940000000000E+04 4.097819328308E-08-8.660682529562E-01-5.401670932770E-08
     9.851620102149E-01 3.050625000000E+02-1.685167727440E+00-5.675593554110E-09
    -2.828689254833E-10 2.580000000000E+02 2.035000000000E+03 0.000000000000E+00
     3.120000000000E+00 5.600000000000E+01 1.164153218269E-09 0.000000000000E+00
     3.245000000000E+04 0.000000000000E+00 0.000000000000E+00 0.000000000000E+00
E01 2019 01 06 08 50 00-5.148659693077E-04-8.114398042380E-12 0.000000000000E+00
     5.300000000000E+01 1.586875000000E+02 2.257951195588E-09 1.893537312744E+00
     7.411465048790E-06 1.173443160951E-04 1.095980405807E-05 5.440626325607E+03
     3.180000000000E+04-2.421438694000E-08-2.946414336658E+00-1.117587089539E-08
     9.903518817996E-01 1.194062500000E+02-8.601671091384E-01-5.021994900531E-09
    -9.678974596714E-11 5.210000000000E+02 2.035000000000E+03 0.000000000000E+00
     3.120000000000E+00 0.000000000000E+00-4.656612873077E-09-5.355104804039E-09
     3.248500000000E+04 0.000000000000E+00 0.000000000000E+00 0.000000000000E+00
E02 2019 01 06 08 50 00 4.217820242047E-05 1.506350599811E-12 0.000000000000E+00
     5.300000000000E+01 1.424062500000E+02 2.224378368573E-09-1.830141880664E+00
     6.651505827904E-06 2.665867796168E-04 1.237168908119E-05 5.440629104614E+03
     3.180000000000E+04-7.636845111847E-08-2.946447035803E+00 2.980232238770E-08
     9.903603828166E-01 8.871875000000E+01-2.797930465949E-01-5.017351849987E-09
    -1.082187934614E-10 5.210000000000E+02 2.035000000000E+03 0.000000000000E+00
     3.120000000000E+00 0.000000000000E+00-5.820766091347E-09-6.984919309616E-09
     3.248500000000E+04 0.000000000000E+00 0.000000000000E+00 0.000000000000E+00
E03 2019 01 06 08 00 00-1.190642360598E-04-4.249045559845E-12 0.000000000000E+00
     4.800000000000E+01 2.909375000000E+01 3.620150793812E-09-1.033078424594E+00
     1.251697540283E-06 2.745001111180E-04 5.219131708145E-06 5.440608192444E+03
     2.880000000000E+04-7.450580596924E-09 1.244421999468E+00-2.793967723846E-08
     9.521976294819E-01 2.238437500000E+02 6.414776930122E-01-5.699523122301E-09
     3.853731951976E-10 5.210000000000E+02 2.035000000000E+03 0.000000000000E+00
     3.120000000000E+00 0.000000000000E+00-1.862645149231E-09-2.095475792885E-09
     3.248500000000E+04 0.000000000000E+00 0.000000000000E+00 0.000000000000E+00
E05 2019 01 06 08 50 00 1.298232236877E-04-6.536993168993E-12 0.000000000000E+00
     5.300000000000E+01 2.578125000000E+01 3.689439394246E-09-8.058182600564E-01
     1.249834895134E-06 1.465197419748E-04 5.239620804787E-06 5.440606061935E+03
     3.180000000000E+04 2.607703208923E-08 1.244388587882E+00-1.862645149231E-08
     9.522120377620E-01 2.212500000000E+02 1.573614629697E+00-5.700594595504E-09
     4.025167664390E-10 5.210000000000E+02 2.035000000000E+03 0.000000000000E+00
     3.120000000000E+00 0.000000000000E+00-1.396983861923E-09-1.629814505577E-09
     3.248500000000E+04 0.000000000000E+00 0.000000000000E+00 0.000000000000E+00
E07 2019 01 06 08 50 00-1.074153115042E-04-7.091216502886E-12 0.000000000000E+00
     5.300000000000E+01 3.468750000000E+01 3.663366879649E-09-1.664805168812E+00
     1.652166247368E-06 1.445853849873E-04 5.226582288742E-06 5.440608259201E+03
     3.180000000000E+04 1.862645149231E-09 1.244405962960E+00 4.470348358154E-08
     9.522421753374E-01 2.253125000000E+02 7.471672395432E-02-5.764168672191E-09
     3.910877189447E-10 5.210000000000E+02 2.035000000000E+03 0.000000000000E+00
     3.120000000000E+00 0.000000000000E+00 2.328306436539E-10 2.328306436539E-10
     3.248500000000E+04 0.000000000000E+00 0.000000000000E+00 0.000000000000E+00
E11 2019 01 06 08 50 00 5.719134933315E-03 1.023181539495E-12 0.000000000000E+00
     5.300000000000E+01-1.903750000000E+02 3.015482749818E-09-2.284142118956E+00
    -8.877366781235E-06 2.418995136395E-04 2.015382051468E-06 5.440602340698E+03
     3.180000000000E+04 1.117587089539E-08-8.607698591825E-01 2.980232238770E-08
     9.819627912403E-01 3.094375000000E+02-3.521658773509E-01-5.747739416418E-09
    -3.057270204718E-10 5.210000000000E+02 2.035000000000E+03 0.000000000000E+00
     3.120000000000E+00 0.000000000000E+00-1.839362084866E-08-2.002343535423E-08
     3.248500000000E+04 0.000000000000E+00 0.000000000000E+00 0.000000000000E+00
E13 2019 01 06 08 50 00 3.813909715973E-04 4.831690603169E-13 0.000000000000E+00
     5.300000000000E+01-1.619375000000E+02 2.839761144593E-09 2.118528198757E+00
    -7.614493370056E-06 3.306844737381E-04 2.387911081314E-06 5.440605642319E+03
     3.180000000000E+04-1.862645149231E-08-8.660705775330E-01-3.911554813385E-08
     9.852033347248E-01 3.031875000000E+02-1.606860924984E+00-5.654521247792E-09
    -2.853690296227E-10 5.210000000000E+02 2.035000000000E+03 0.000000000000E+00
     3.120000000000E+00 4.550000000000E+02-4.656612873077E-09-5.820766091347E-09
     3.248500000000E+04 0.000000000000E+00 0.000000000000E+00 0.000000000000E+00
